{
  "type": "FeatureCollection",
  "features": [
    {
      "type": "Feature",
      "properties": {
        "norad_id": 30080,
        "name": "FENGYUN 1C DEB",
        "group": "fengyun-1c-debris",
        "lat": 56.73112914615279,
        "lon": -43.12600072248305,
        "alt_km": 754.8275498947669,
        "timestamp": "2025-12-15T22:44:29.201568+00:00",
        "meta_object_name": "FENGYUN 1C DEB",
        "meta_object_id": "1999-025QH",
        "meta_epoch": "2025-12-14T22:56:18.966048",
        "meta_mean_motion": 14.10823786,
        "meta_eccentricity": 0.01337918,
        "meta_inclination": 98.6983,
        "meta_ra_of_asc_node": 329.4068,
        "meta_arg_of_pericenter": 54.3456,
        "meta_mean_anomaly": 8.8794,
        "meta_ephemeris_type": 0,
        "meta_classification_type": "U",
        "meta_norad_cat_id": 30080,
        "meta_element_set_no": 999,
        "meta_rev_at_epoch": 97269,
        "meta_bstar": 0.00033663623,
        "meta_mean_motion_dot": 6.14e-06,
        "meta_mean_motion_ddot": 0,
        "tle_line1": "1 30080U 99025QH  25348.95577507  .00000614  00000+0  33664-3 0  9998",
        "tle_line2": "2 30080  98.6983 329.4068 0133791  54.3456   8.8794 14.10823786972698"
      },
      "geometry": {
        "type": "Point",
        "coordinates": [
          -43.12600072248305,
          56.73112914615279
        ]
      }
    },
    {
      "type": "Feature",
      "properties": {
        "norad_id": 30081,
        "name": "FENGYUN 1C DEB",
        "group": "fengyun-1c-debris",
        "lat": 68.32361548048723,
        "lon": -170.5859934163497,
        "alt_km": 934.8125132912146,
        "timestamp": "2025-12-15T22:44:29.201579+00:00",
        "meta_object_name": "FENGYUN 1C DEB",
        "meta_object_id": "1999-025QJ",
        "meta_epoch": "2025-12-15T00:12:16.845120",
        "meta_mean_motion": 13.98281349,
        "meta_eccentricity": 0.00758567,
        "meta_inclination": 98.9229,
        "meta_ra_of_asc_node": 345.2188,
        "meta_arg_of_pericenter": 332.9854,
        "meta_mean_anomaly": 91.9237,
        "meta_ephemeris_type": 0,
        "meta_classification_type": "U",
        "meta_norad_cat_id": 30081,
        "meta_element_set_no": 999,
        "meta_rev_at_epoch": 96386,
        "meta_bstar": 0.00061156822,
        "meta_mean_motion_dot": 8.51e-06,
        "meta_mean_motion_ddot": 0,
        "tle_line1": "1 30081U 99025QJ  25349.00852830  .00000851  00000+0  61157-3 0  9992",
        "tle_line2": "2 30081  98.9229 345.2188 0075856 332.9854  91.9237 13.98281349963860"
      },
      "geometry": {
        "type": "Point",
        "coordinates": [
          -170.5859934163497,
          68.32361548048723
        ]
      }
    },
    {
      "type": "Feature",
      "properties": {
        "norad_id": 30082,
        "name": "FENGYUN 1C DEB",
        "group": "fengyun-1c-debris",
        "lat": -78.56151582892315,
        "lon": 48.09889965724563,
        "alt_km": 541.3590758611772,
        "timestamp": "2025-12-15T22:44:29.201589+00:00",
        "meta_object_name": "FENGYUN 1C DEB",
        "meta_object_id": "1999-025QK",
        "meta_epoch": "2025-12-15T08:54:40.835808",
        "meta_mean_motion": 15.15237571,
        "meta_eccentricity": 0.00699028,
        "meta_inclination": 98.8177,
        "meta_ra_of_asc_node": 277.5347,
        "meta_arg_of_pericenter": 157.5329,
        "meta_mean_anomaly": 202.8987,
        "meta_ephemeris_type": 0,
        "meta_classification_type": "U",
        "meta_norad_cat_id": 30082,
        "meta_element_set_no": 999,
        "meta_rev_at_epoch": 1333,
        "meta_bstar": 0.00076968709,
        "meta_mean_motion_dot": 0.0001532,
        "meta_mean_motion_ddot": 0,
        "tle_line1": "1 30082U 99025QK  25349.37130597  .00015320  00000+0  76969-3 0  9996",
        "tle_line2": "2 30082  98.8177 277.5347 0069902 157.5329 202.8987 15.15237571 13331"
      },
      "geometry": {
        "type": "Point",
        "coordinates": [
          48.09889965724563,
          -78.56151582892315
        ]
      }
    },
    {
      "type": "Feature",
      "properties": {
        "norad_id": 30086,
        "name": "FENGYUN 1C DEB",
        "group": "fengyun-1c-debris",
        "lat": -37.75959884974482,
        "lon": 30.545765352102293,
        "alt_km": 929.9934447126507,
        "timestamp": "2025-12-15T22:44:29.201599+00:00",
        "meta_object_name": "FENGYUN 1C DEB",
        "meta_object_id": "1999-025QP",
        "meta_epoch": "2025-12-15T00:59:13.822080",
        "meta_mean_motion": 14.0383212,
        "meta_eccentricity": 0.00618285,
        "meta_inclination": 98.9101,
        "meta_ra_of_asc_node": 22.6783,
        "meta_arg_of_pericenter": 128.2448,
        "meta_mean_anomaly": 295.3673,
        "meta_ephemeris_type": 0,
        "meta_classification_type": "U",
        "meta_norad_cat_id": 30086,
        "meta_element_set_no": 999,
        "meta_rev_at_epoch": 96728,
        "meta_bstar": 0.00059296283,
        "meta_mean_motion_dot": 9.08e-06,
        "meta_mean_motion_ddot": 0,
        "tle_line1": "1 30086U 99025QP  25349.04113220  .00000908  00000+0  59296-3 0  9998",
        "tle_line2": "2 30086  98.9101  22.6783 0061828 128.2448 295.3673 14.03832120967280"
      },
      "geometry": {
        "type": "Point",
        "coordinates": [
          30.545765352102293,
          -37.75959884974482
        ]
      }
    },
    {
      "type": "Feature",
      "properties": {
        "norad_id": 30087,
        "name": "FENGYUN 1C DEB",
        "group": "fengyun-1c-debris",
        "lat": -56.51361190864342,
        "lon": -170.77032783878707,
        "alt_km": 873.0623554069598,
        "timestamp": "2025-12-15T22:44:29.201610+00:00",
        "meta_object_name": "FENGYUN 1C DEB",
        "meta_object_id": "1999-025QQ",
        "meta_epoch": "2025-12-15T01:43:05.019168",
        "meta_mean_motion": 14.3570663,
        "meta_eccentricity": 0.02303775,
        "meta_inclination": 98.3802,
        "meta_ra_of_asc_node": 21.2527,
        "meta_arg_of_pericenter": 114.4391,
        "meta_mean_anomaly": 275.886,
        "meta_ephemeris_type": 0,
        "meta_classification_type": "U",
        "meta_norad_cat_id": 30087,
        "meta_element_set_no": 999,
        "meta_rev_at_epoch": 98729,
        "meta_bstar": 0.0002487954,
        "meta_mean_motion_dot": 9.24e-06,
        "meta_mean_motion_ddot": 0,
        "tle_line1": "1 30087U 99025QQ  25349.07158587  .00000924  00000+0  24880-3 0  9996",
        "tle_line2": "2 30087  98.3802  21.2527 0230377 114.4391 275.8860 14.35706630987290"
      },
      "geometry": {
        "type": "Point",
        "coordinates": [
          -170.77032783878707,
          -56.51361190864342
        ]
      }
    },
    {
      "type": "Feature",
      "properties": {
        "norad_id": 30088,
        "name": "FENGYUN 1C DEB",
        "group": "fengyun-1c-debris",
        "lat": 45.95562598523331,
        "lon": 162.86995123213174,
        "alt_km": 801.2653961387296,
        "timestamp": "2025-12-15T22:44:29.201620+00:00",
        "meta_object_name": "FENGYUN 1C DEB",
        "meta_object_id": "1999-025QR",
        "meta_epoch": "2025-12-14T23:01:49.505664",
        "meta_mean_motion": 14.35917411,
        "meta_eccentricity": 0.02008082,
        "meta_inclination": 98.3542,
        "meta_ra_of_asc_node": 333.173,
        "meta_arg_of_pericenter": 240.7937,
        "meta_mean_anomaly": 190.659,
        "meta_ephemeris_type": 0,
        "meta_classification_type": "U",
        "meta_norad_cat_id": 30088,
        "meta_element_set_no": 999,
        "meta_rev_at_epoch": 98704,
        "meta_bstar": 0.00030887623,
        "meta_mean_motion_dot": 1.076e-05,
        "meta_mean_motion_ddot": 0,
        "tle_line1": "1 30088U 99025QR  25348.95960076  .00001076  00000+0  30888-3 0  9991",
        "tle_line2": "2 30088  98.3542 333.1730 0200808 240.7937 190.6590 14.35917411987046"
      },
      "geometry": {
        "type": "Point",
        "coordinates": [
          162.86995123213174,
          45.95562598523331
        ]
      }
    },
    {
      "type": "Feature",
      "properties": {
        "norad_id": 30089,
        "name": "FENGYUN 1C DEB",
        "group": "fengyun-1c-debris",
        "lat": 75.03928115516756,
        "lon": 111.33348231577116,
        "alt_km": 790.9447073271967,
        "timestamp": "2025-12-15T22:44:29.201630+00:00",
        "meta_object_name": "FENGYUN 1C DEB",
        "meta_object_id": "1999-025QS",
        "meta_epoch": "2025-12-15T06:12:32.798880",
        "meta_mean_motion": 14.30308309,
        "meta_eccentricity": 0.00733851,
        "meta_inclination": 98.9032,
        "meta_ra_of_asc_node": 254.7112,
        "meta_arg_of_pericenter": 202.5685,
        "meta_mean_anomaly": 315.3647,
        "meta_ephemeris_type": 0,
        "meta_classification_type": "U",
        "meta_norad_cat_id": 30089,
        "meta_element_set_no": 999,
        "meta_rev_at_epoch": 98515,
        "meta_bstar": 0.00023700933,
        "meta_mean_motion_dot": 5.87e-06,
        "meta_mean_motion_ddot": 0,
        "tle_line1": "1 30089U 99025QS  25349.25871295  .00000587  00000+0  23701-3 0  9992",
        "tle_line2": "2 30089  98.9032 254.7112 0073385 202.5685 315.3647 14.30308309985157"
      },
      "geometry": {
        "type": "Point",
        "coordinates": [
          111.33348231577116,
          75.03928115516756
        ]
      }
    }
  ]
}